FENGYUN 1C DEB          
1 30494U 99025AHG 17343.06094442  .00000505  00000-0  52149-3 0  9996
2 30494  99.5418  15.4392 0195114 314.5275  44.0074 13.72918422543932
